GORIZONT 1 [-]          
1 11158U 78118A   19051.03166487 -.00000025  00000-0  00000-0 0  9990
2 11158  13.5284 250.8552 3567773 217.7939 110.5355  1.00248472 96120
GORIZONT 2 [-]          
1 11440U 79062A   19051.91657469 -.00000197  00000-0  00000-0 0  9995
2 11440  11.8482 316.3287 0005733 324.3239 283.3012  1.00301598111212
GORIZONT 3 [-]          
1 11648U 79105A   19051.69153985 -.00000284  00000-0  00000+0 0  9998
2 11648  11.9732 317.5555 0008831 188.2842 349.2848  1.00213163 95659
GORIZONT 4 [-]          
1 11841U 80049A   19051.37845823 -.00000156  00000-0  00000-0 0  9995
2 11841  13.0271 322.3306 0006398 335.7344 290.0120  0.98629421207144
GORIZONT 5 [-]          
1 13092U 82020A   19051.73868900 -.00000017  00000-0  00000+0 0  9992
2 13092  13.8577 327.2067 0029439 181.7753 352.6283  0.98529936 95233
GORIZONT 6 [-]          
1 13624U 82103A   19051.64454081  .00000088  00000-0  00000+0 0  9993
2 13624  12.7346 327.1061 0003037 332.8542 275.6679  1.00306896 94122
GORIZONT 7 [-]          
1 14160U 83066A   19051.54276976 -.00000223  00000-0  00000+0 0  9994
2 14160  14.1092 335.2755 0014378 299.5265 243.3374  0.98349818128492
GORIZONT 8 [-]          
1 14532U 83118A   19051.87824833 -.00000031  00000-0  00000+0 0  9999
2 14532  14.2093 336.9222 0024144 110.3859  74.4425  0.98268458 94262
GORIZONT 9 [-]          
1 14940U 84041A   19050.92900552  .00000063  00000-0  00000-0 0  9991
2 14940  13.4325 335.3849 0003370 262.8662 298.8333  1.00280601 95129
GORIZONT 10 [-]         
1 15144U 84078A   19052.08589747  .00000090  00000-0  00000+0 0  9995
2 15144  13.4834 336.3658 0005508 326.7575  76.9890  1.00226351127804
GORIZONT 11 [-]         
1 15484U 85007A   19051.54521236  .00000049  00000-0  00000-0 0  9999
2 15484  13.5807 338.1893 0003420 351.7297 201.1848  1.00302289125812
GORIZONT 12 [-]         
1 16769U 86044A   19051.80482464 -.00000139  00000-0  00000-0 0  9997
2 16769  13.9696 343.1718 0005583 307.7727 224.6048  1.00348305120458
GORIZONT 13 [-]         
1 17083U 86090A   19051.68068979 -.00000178  00000-0  00000+0 0  9997
2 17083  15.5657 349.4977 0020308 310.0401 240.0984  0.96726804 92803
GORIZONT 14 [-]         
1 17969U 87040A   19051.38628747 -.00000066  00000-0  00000+0 0  9994
2 17969  14.9118 341.5957 0024879 141.1797  50.2339  0.97657649 93739
GORIZONT 15 [-]         
1 19017U 88028A   19051.20676406 -.00000158  00000-0  00000+0 0  9995
2 19017  15.6753 352.6708 0030446 121.8005  64.5139  0.97828973 93320
GORIZONT 16 [-]         
1 19397U 88071A   19052.09824306  .00000084  00000-0  00000+0 0  9993
2 19397  14.5615 351.4946 0017242   4.8067  36.3532  0.99977544111500
GORIZONT 17 [-]         
1 19765U 89004A   19051.13222657 -.00000271  00000-0  00000-0 0  9994
2 19765  14.9487 354.5518 0017394  87.6985  82.4916  0.99068103109085
GORIZONT 18 [-]         
1 20107U 89052A   19051.51351441  .00000032  00000-0  00000-0 0  9999
2 20107  14.9170 355.8604 0039661 288.0010 293.5255  0.99397611107834
GORIZONT 19 [-]         
1 20263U 89081A   19051.90351434 -.00000210  00000-0  00000+0 0  9997
2 20263  14.6725 355.2243 0005990 288.0320 278.8248  1.00193459107683
GORIZONT 20 [-]         
1 20659U 90054A   19051.92410758  .00000018  00000-0  00000+0 0  9990
2 20659  14.9541 358.1270 0001876 188.8071 355.8561  1.00237661104889
GORIZONT 21 [-]         
1 20923U 90094A   19051.13868931 -.00000092  00000-0  00000-0 0  9995
2 20923  14.9219 358.9217 0004642 259.6377 294.9238  1.00249839103630
GORIZONT 22 [-]         
1 20953U 90102A   19051.72334174 -.00000315  00000-0  00000+0 0  9997
2 20953  14.8637 359.2082 0007920 314.0981 236.9923  1.00254928103596
GORIZONT 23 [-]         
1 21533U 91046A   19051.67298927 -.00000295  00000-0  00000+0 0  9996
2 21533  15.4081   3.0633 0010077 294.3782 250.5271  0.98911161 94281
GORIZONT 24 [-]         
1 21759U 91074A   19051.48179183 -.00000042  00000-0  00000+0 0  9998
2 21759  15.4597   4.7718 0017061 211.8420 333.6965  0.98442374 98718
GORIZONT 25 [-]         
1 21922U 92017A   19051.61308192 -.00000193  00000-0  00000-0 0  9995
2 21922  15.0242   4.3856 0027077  34.2654 136.3238  0.99860174 98248
GORIZONT 26 [-]         
1 22041U 92043A   19051.44288807 -.00000263  00000-0  00000+0 0  9995
2 22041  15.0880   6.1472 0030334 212.9430  41.0220  0.99244050 96958
GORIZONT 27 [-]         
1 22245U 92082A   19051.74281557 -.00000369  00000-0  00000-0 0  9990
2 22245  15.0138   6.1100 0017654 321.6329 220.3646  1.00191672100339
GORIZONT 28 [-]         
1 22880U 93069A   19052.09768508  .00000052  00000-0  00000+0 0  9993
2 22880  14.9378   9.6510 0028103  94.7472 288.4196  0.99653381 92500
GORIZONT 29 [-]         
1 22907U 93072A   19051.47160005 -.00000085  00000-0  00000+0 0  9993
2 22907  14.8739   9.2913 0016363 304.7966 257.7632  1.00114555 92423
GORIZONT 30 [-]         
1 23108U 94030A   19051.78387428 -.00000318  00000-0  00000+0 0  9995
2 23108  14.8339  10.2510 0005432 288.5489  75.6879  1.00354792 90687
GORIZONT 31 [-]         
1 23775U 96005A   19051.54966139  .00000077  00000-0  00000+0 0  9996
2 23775  14.3892  16.0117 0016752 184.1036 354.3936  0.99892290 84332
GORIZONT 32 [-]         
1 23880U 96034A   19051.42348809 -.00000301  00000-0  00000-0 0  9992
2 23880  14.3052  16.6130 0013788 304.6869 275.5467  1.00162130 83267
GORIZONT 33 [-]         
1 26372U 00029A   19051.30977187 -.00000203  00000-0  00000-0 0  9995
2 26372  12.4001  26.6811 0004622 308.4795 264.5351  1.00245886 68615
